{"type": "FeatureCollection", "features": [ {"type": "Feature", "properties": {"norad_id": 43108, "name": "BEIDOU-3 M8 (C28)", "group": "beidou", "lat": 51.398136059711355, "lon": 11.933352105212585, "alt_km": 21533.967827338685, "timestamp": "2025-12-18T10:51:26.071486+00:00", "meta": {"OBJECT_NAME": "BEIDOU-3 M8 (C28)", "OBJECT_ID": "2018-003B", "EPOCH": "2025-12-17T06:26:34.084320", "MEAN_MOTION": 1.8623095, "ECCENTRICITY": 0.00046498, "INCLINATION": 54.4854, "RA_OF_ASC_NODE": 308.6394, "ARG_OF_PERICENTER": 276.4476, "MEAN_ANOMALY": 83.4857, "EPHEMERIS_TYPE": 0, "CLASSIFICATION_TYPE": "U", "NORAD_CAT_ID": 43108, "ELEMENT_SET_NO": 999, "REV_AT_EPOCH": 5397, "BSTAR": 0, "MEAN_MOTION_DOT": -9.2e-07, "MEAN_MOTION_DDOT": 0}, "tle": {"line1": "1 43108U 18003B   25351.26845005 -.00000092  00000+0  00000+0 0  9994", "line2": "2 43108  54.4854 308.6394 0004649 276.4476  83.4857  1.86230950 53973"}}, "geometry": {"type": "Point", "coordinates": [11.933352105212585, 51.398136059711355]}}, {"type": "Feature", "properties": {"norad_id": 43207, "name": "BEIDOU-3 M4 (C22)", "group": "beidou", "lat": 34.2760824200915, "lon": -137.66896946909566, "alt_km": 21531.2945823322, "timestamp": "2025-12-18T10:51:26.071504+00:00", "meta": {"OBJECT_NAME": "BEIDOU-3 M4 (C22)", "OBJECT_ID": "2018-018A", "EPOCH": "2025-12-17T17:03:00.962784", "MEAN_MOTION": 1.86231343, "ECCENTRICITY": 0.00041109, "INCLINATION": 56.4905, "RA_OF_ASC_NODE": 69.1395, "ARG_OF_PERICENTER": 7.1721, "MEAN_ANOMALY": 352.8599, "EPHEMERIS_TYPE": 0, "CLASSIFICATION_TYPE": "U", "NORAD_CAT_ID": 43207, "ELEMENT_SET_NO": 999, "REV_AT_EPOCH": 5336, "BSTAR": 0, "MEAN_MOTION_DOT": -7e-07, "MEAN_MOTION_DDOT": 0}, "tle": {"line1": "1 43207U 18018A   25351.71042781 -.00000070  00000+0  00000+0 0  9996", "line2": "2 43207  56.4905  69.1395 0004110   7.1721 352.8599  1.86231343 53363"}}, "geometry": {"type": "Point", "coordinates": [-137.66896946909566, 34.2760824200915]}}, {"type": "Feature", "properties": {"norad_id": 43208, "name": "BEIDOU-3 M3 (C21)", "group": "beidou", "lat": 56.40565793084816, "lon": 164.33324178059823, "alt_km": 21535.278818456107, "timestamp": "2025-12-18T10:51:26.071517+00:00", "meta": {"OBJECT_NAME": "BEIDOU-3 M3 (C21)", "OBJECT_ID": "2018-018B", "EPOCH": "2025-12-17T18:38:47.514912", "MEAN_MOTION": 1.8623152, "ECCENTRICITY": 0.00067422, "INCLINATION": 56.4896, "RA_OF_ASC_NODE": 69.1416, "ARG_OF_PERICENTER": 315.779, "MEAN_ANOMALY": 44.1937, "EPHEMERIS_TYPE": 0, "CLASSIFICATION_TYPE": "U", "NORAD_CAT_ID": 43208, "ELEMENT_SET_NO": 999, "REV_AT_EPOCH": 5336, "BSTAR": 0, "MEAN_MOTION_DOT": -6.9e-07, "MEAN_MOTION_DDOT": 0}, "tle": {"line1": "1 43208U 18018B   25351.77693883 -.00000069  00000+0  00000+0 0  9996", "line2": "2 43208  56.4896  69.1416 0006742 315.7790  44.1937  1.86231520 53368"}}, "geometry": {"type": "Point", "coordinates": [164.33324178059823, 56.40565793084816]}}, {"type": "Feature", "properties": {"norad_id": 43245, "name": "BEIDOU-3 M9 (C29)", "group": "beidou", "lat": -39.905864321018285, "lon": -90.58779055483572, "alt_km": 21528.99735355252, "timestamp": "2025-12-18T10:51:26.071528+00:00", "meta": {"OBJECT_NAME": "BEIDOU-3 M9 (C29)", "OBJECT_ID": "2018-029A", "EPOCH": "2025-12-17T10:56:56.120640", "MEAN_MOTION": 1.86228468, "ECCENTRICITY": 0.00015623, "INCLINATION": 54.3612, "RA_OF_ASC_NODE": 306.303, "ARG_OF_PERICENTER": 285.5475, "MEAN_ANOMALY": 74.4222, "EPHEMERIS_TYPE": 0, "CLASSIFICATION_TYPE": "U", "NORAD_CAT_ID": 43245, "ELEMENT_SET_NO": 999, "REV_AT_EPOCH": 5251, "BSTAR": 0, "MEAN_MOTION_DOT": -9e-07, "MEAN_MOTION_DDOT": 0}, "tle": {"line1": "1 43245U 18029A   25351.45620510 -.00000090  00000+0  00000+0 0  9995", "line2": "2 43245  54.3612 306.3030 0001562 285.5475  74.4222  1.86228468 52515"}}, "geometry": {"type": "Point", "coordinates": [-90.58779055483572, -39.905864321018285]}}, {"type": "Feature", "properties": {"norad_id": 43246, "name": "BEIDOU-3 M10 (C30)", "group": "beidou", "lat": -7.066415502450965, "lon": -58.82745237770113, "alt_km": 21517.964633456802, "timestamp": "2025-12-18T10:51:26.071541+00:00", "meta": {"OBJECT_NAME": "BEIDOU-3 M10 (C30)", "OBJECT_ID": "2018-029B", "EPOCH": "2025-12-17T09:23:40.675200", "MEAN_MOTION": 1.8622912, "ECCENTRICITY": 0.00041993, "INCLINATION": 54.3586, "RA_OF_ASC_NODE": 306.3321, "ARG_OF_PERICENTER": 3.5987, "MEAN_ANOMALY": 356.3911, "EPHEMERIS_TYPE": 0, "CLASSIFICATION_TYPE": "U", "NORAD_CAT_ID": 43246, "ELEMENT_SET_NO": 999, "REV_AT_EPOCH": 5249, "BSTAR": 0, "MEAN_MOTION_DOT": -9e-07, "MEAN_MOTION_DDOT": 0}, "tle": {"line1": "1 43246U 18029B   25351.39144300 -.00000090  00000+0  00000+0 0  9997", "line2": "2 43246  54.3586 306.3321 0004199   3.5987 356.3911  1.86229120 52494"}}, "geometry": {"type": "Point", "coordinates": [-58.82745237770113, -7.066415502450965]}}, {"type": "Feature", "properties": {"norad_id": 43539, "name": "BEIDOU-2 IGSO-7 (C16)", "group": "beidou", "lat": -12.633050012289843, "lon": -6.399488045230794, "alt_km": 35491.585950186265, "timestamp": "2025-12-18T10:51:26.071554+00:00", "meta": {"OBJECT_NAME": "BEIDOU-2 IGSO-7 (C16)", "OBJECT_ID": "2018-057A", "EPOCH": "2025-12-15T07:47:07.120608", "MEAN_MOTION": 1.00256546, "ECCENTRICITY": 0.00926218, "INCLINATION": 55.1766, "RA_OF_ASC_NODE": 164.6485, "ARG_OF_PERICENTER": 235.2644, "MEAN_ANOMALY": 271.8458, "EPHEMERIS_TYPE": 0, "CLASSIFICATION_TYPE": "U", "NORAD_CAT_ID": 43539, "ELEMENT_SET_NO": 999, "REV_AT_EPOCH": 2728, "BSTAR": 0, "MEAN_MOTION_DOT": -2.3e-07, "MEAN_MOTION_DDOT": 0}, "tle": {"line1": "1 43539U 18057A   25349.32438797 -.00000023  00000+0  00000+0 0  9995", "line2": "2 43539  55.1766 164.6485 0092621 235.2644 271.8458  1.00256546 27289"}}, "geometry": {"type": "Point", "coordinates": [-6.399488045230794, -12.633050012289843]}}, {"type": "Feature", "properties": {"norad_id": 43581, "name": "BEIDOU-3 M5 (C23)", "group": "beidou", "lat": -16.641837756044936, "lon": 20.971184595947708, "alt_km": 21535.8663838868, "timestamp": "2025-12-18T10:51:26.071566+00:00", "meta": {"OBJECT_NAME": "BEIDOU-3 M5 (C23)", "OBJECT_ID": "2018-062A", "EPOCH": "2025-12-17T01:53:59.361792", "MEAN_MOTION": 1.86228923, "ECCENTRICITY": 0.00020674, "INCLINATION": 54.0895, "RA_OF_ASC_NODE": 188.4955, "ARG_OF_PERICENTER": 356.8892, "MEAN_ANOMALY": 3.1782, "EPHEMERIS_TYPE": 0, "CLASSIFICATION_TYPE": "U", "NORAD_CAT_ID": 43581, "ELEMENT_SET_NO": 999, "REV_AT_EPOCH": 5024, "BSTAR": 0, "MEAN_MOTION_DOT": 1.14e-06, "MEAN_MOTION_DDOT": 0}, "tle": {"line1": "1 43581U 18062A   25351.07915928  .00000114  00000+0  00000+0 0  9999", "line2": "2 43581  54.0895 188.4955 0002067 356.8892   3.1782  1.86228923 50243"}}, "geometry": {"type": "Point", "coordinates": [20.971184595947708, -16.641837756044936]}}, {"type": "Feature", "properties": {"norad_id": 43582, "name": "BEIDOU-3 M6 (C24)", "group": "beidou", "lat": -48.416649773491265, "lon": 133.65103078808818, "alt_km": 21543.129066505975, "timestamp": "2025-12-18T10:51:26.071579+00:00", "meta": {"OBJECT_NAME": "BEIDOU-3 M6 (C24)", "OBJECT_ID": "2018-062B", "EPOCH": "2025-12-16T22:36:47.503008", "MEAN_MOTION": 1.86229876, "ECCENTRICITY": 0.00079021, "INCLINATION": 54.0891, "RA_OF_ASC_NODE": 188.4892, "ARG_OF_PERICENTER": 48.1398, "MEAN_ANOMALY": 311.9965, "EPHEMERIS_TYPE": 0, "CLASSIFICATION_TYPE": "U", "NORAD_CAT_ID": 43582, "ELEMENT_SET_NO": 999, "REV_AT_EPOCH": 5024, "BSTAR": 0, "MEAN_MOTION_DOT": 1.14e-06, "MEAN_MOTION_DDOT": 0}, "tle": {"line1": "1 43582U 18062B   25350.94221647  .00000114  00000+0  00000+0 0  9993", "line2": "2 43582  54.0891 188.4892 0007902  48.1398 311.9965  1.86229876 50246"}}, "geometry": {"type": "Point", "coordinates": [133.65103078808818, -48.416649773491265]}}, {"type": "Feature", "properties": {"norad_id": 43602, "name": "BEIDOU-3 M12 (C26)", "group": "beidou", "lat": -20.724774248308236, "lon": 171.30988779652955, "alt_km": 21520.998681899575, "timestamp": "2025-12-18T10:51:26.071591+00:00", "meta": {"OBJECT_NAME": "BEIDOU-3 M12 (C26)", "OBJECT_ID": "2018-067A", "EPOCH": "2025-12-15T19:20:53.031840", "MEAN_MOTION": 1.86227731, "ECCENTRICITY": 0.00092007, "INCLINATION": 54.1833, "RA_OF_ASC_NODE": 187.259, "ARG_OF_PERICENTER": 40.7418, "MEAN_ANOMALY": 319.394, "EPHEMERIS_TYPE": 0, "CLASSIFICATION_TYPE": "U", "NORAD_CAT_ID": 43602, "ELEMENT_SET_NO": 999, "REV_AT_EPOCH": 4970, "BSTAR": 0, "MEAN_MOTION_DOT": 1.15e-06, "MEAN_MOTION_DDOT": 0}, "tle": {"line1": "1 43602U 18067A   25349.80616935  .00000115  00000+0  00000+0 0  9993", "line2": "2 43602  54.1833 187.2590 0009200  40.7418 319.3940  1.86227731 49704"}}, "geometry": {"type": "Point", "coordinates": [171.30988779652955, -20.724774248308236]}}, {"type": "Feature", "properties": {"norad_id": 43603, "name": "BEIDOU-3 M11 (C25)", "group": "beidou", "lat": -46.75847405283092, "lon": 57.347420170104, "alt_km": 21547.582245684534, "timestamp": "2025-12-18T10:51:26.071603+00:00", "meta": {"OBJECT_NAME": "BEIDOU-3 M11 (C25)", "OBJECT_ID": "2018-067B", "EPOCH": "2025-12-17T00:21:01.872864", "MEAN_MOTION": 1.86227285, "ECCENTRICITY": 0.00055921, "INCLINATION": 54.1804, "RA_OF_ASC_NODE": 187.182, "ARG_OF_PERICENTER": 36.5835, "MEAN_ANOMALY": 323.5212, "EPHEMERIS_TYPE": 0, "CLASSIFICATION_TYPE": "U", "NORAD_CAT_ID": 43603, "ELEMENT_SET_NO": 999, "REV_AT_EPOCH": 4975, "BSTAR": 0, "MEAN_MOTION_DOT": 1.14e-06, "MEAN_MOTION_DDOT": 0}, "tle": {"line1": "1 43603U 18067B   25351.01460501  .00000114  00000+0  00000+0 0  9995", "line2": "2 43603  54.1804 187.1820 0005592  36.5835 323.5212  1.86227285 49752"}}, "geometry": {"type": "Point", "coordinates": [57.347420170104, -46.75847405283092]}}]}